SL-3 R/B                
1 19046U 88032B   23045.53136348  .00006961  00000+0  48808-3 0  9990
2 19046  97.4076  39.1286 0036847 131.4700 228.9701 15.04934241883009
SL-16 R/B               
1 19120U 88039B   23045.34037810 -.00000010  00000+0  18223-4 0  9992
2 19120  71.0137 274.7867 0024255 258.0812 101.7594 14.19289152799542
COSMOS 1953             
1 19210U 88050A   23045.34826720  .00007074  00000+0  44607-3 0  9991
2 19210  82.5203 185.2706 0019352  56.4215 303.8858 15.08817798868019
SL-8 R/B                
1 19257U 88053B   23045.42723374  .00000795  00000+0  27221-3 0  9991
2 19257  74.0495  13.5146 0019165 113.7104  33.6757 14.37732553815672
COSMOS 1975             
1 19573U 88093A   23044.63410698  .00008091  00000+0  52458-3 0  9997
2 19573  82.5217 142.3101 0014272  96.4401 263.8453 15.07886843849602
SL-14 R/B               
1 19574U 88093B   23045.43272274  .00001346  00000+0  15932-3 0  9995
2 19574  82.5335  10.9965 0022551 133.4660 349.3462 14.83704655834966
SL-16 R/B               
1 19650U 88102B   23045.58181312  .00000422  00000+0  23858-3 0  9999
2 19650  71.0022 345.6449 0016579 273.6704  86.2523 14.15865782768472
INTERCOSMOS 24          
1 20261U 89080A   23045.42344843  .00001288  00000+0  38177-3 0  9999
2 20261  82.6017 111.0545 1200277   4.5232 356.5617 12.56732525526047
SL-14 R/B               
1 20262U 89080C   23045.07375861  .00001346  00000+0  40869-3 0  9991
2 20262  82.5972 171.4870 1235660 221.4490 128.6208 12.49201793520282
DELTA 2 R/B(1)          
1 20303U 89085B   23045.51204244  .00051326  00000+0  92706-3 0  9997
2 20303  35.6371 338.9261 0065583 245.7361 113.6510 15.46227454817780
DELTA 1 R/B             
1 20323U 89089B   23045.25500435  .00001315  00000+0  34630-3 0  9990
2 20323  97.0653  52.8215 0072663  53.6279 307.1594 14.48696344733541
ARIANE 40 R/B           
1 20443U 90005H   23045.58111336  .00000790  00000+0  27333-3 0  9995
2 20443  98.4545 115.0773 0009640 327.0898  32.9688 14.38383780731844
DELTA 2 R/B(1)          
1 20453U 90008B   23045.31964605  .00019560  00000+0  95302-3 0  9991
2 20453  35.6217 264.3683 0250361 168.1448 192.5303 14.94106407756031
COSMOS 2058             
1 20465U 90010A   23045.55152917  .00003965  00000+0  31822-3 0  9997
2 20465  82.4862  57.1737 0015693 155.2195 204.9786 14.99741281773909
SL-14 R/B               
1 20466U 90010B   23045.26522204  .00001063  00000+0  13147-3 0  9993
2 20466  82.5002 237.1540 0021134  28.2313 332.0041 14.81730493762614
SL-14 R/B               
1 20511U 90018B   23045.38435745  .00001388  00000+0  17842-3 0  9994
2 20511  82.5244 187.7802 0017609 165.5415 224.3137 14.80381956756880
HST                     
1 20580U 90037B   23045.56195418  .00007269  00000+0  40235-3 0  9997
2 20580  28.4715   3.2127 0002572 134.4770  16.1854 15.11964367602872
SL-16 R/B               
1 20625U 90046B   23045.46380870  .00000273  00000+0  16646-3 0  9991
2 20625  70.9998 127.9193 0015433 213.1405 146.8752 14.14731264690082
COSMOS 2084             
1 20663U 90055A   23045.57816320  .00005330  00000+0  43428-3 0  9996
2 20663  62.7922 159.4326 0132393  74.0204 287.5429 14.94057911768453
SL-6 R/B(2)             
1 20666U 90055D   23045.52113443  .00003782  00000+0  31280-3 0  9992
2 20666  62.7841  73.4997 0131099  95.6782 265.9279 14.94240996770416
SL-8 R/B                
1 20775U 90078B   23045.50710183  .00014457  00000+0  64829-3 0  9996
2 20775  82.9242 140.9164 0531319  48.5242 316.0319 14.45100994645401
SL-8 R/B                
1 21088U 91006B   23045.14169042  .00000084  00000+0  69479-4 0  9996
2 21088  82.9409 282.7371 0021438 292.3521 233.1024 13.77240838609952
OKEAN-3                 
1 21397U 91039A   23045.54030281  .00005338  00000+0  48911-3 0  9995
2 21397  82.5236 332.0191 0017968 148.2932 211.9375 14.94631843697327
COSMOS 2151             
1 21422U 91042A   23045.55118483  .00003195  00000+0  30236-3 0  9990
2 21422  82.4976  76.9828 0012871 217.9486 142.0828 14.93309943695803
SL-14 R/B               
1 21423U 91042B   23044.67762583  .00001215  00000+0  15689-3 0  9995
2 21423  82.4948 189.0406 0016617 320.7400  39.2607 14.80118317687309
ERS-1                   
1 21574U 91050A   23045.35924016  .00000823  00000+0  28550-3 0  9993
2 21574  98.7296  22.5460 0031743 281.3222  78.4398 14.38033588654781
ARIANE 40 R/B           
1 21610U 91050F   23044.94896505  .00000948  00000+0  30691-3 0  9996
2 21610  98.3527 114.4243 0002756 200.3074 159.8006 14.41234690657619
INTERCOSMOS 25          
1 21819U 91086A   23045.35202380  .00002309  00000+0  46013-3 0  9992
2 21819  82.6036 263.7575 1511708 359.4450   0.4884 12.06456121361390
SL-8 R/B                
1 21876U 92008B   23044.99688949  .00000219  00000+0  21015-3 0  9991
2 21876  82.9280  20.2723 0035444  23.6146   9.0247 13.75734650555450
SL-8 R/B                
1 21938U 92020B   23045.57635633  .00000187  00000+0  17872-3 0  9991
2 21938  82.9271 264.8140 0029101 178.7804 210.0354 13.75326091547296
COSMOS 2219             
1 22219U 92076A   23045.44373059  .00000485  00000+0  28089-3 0  9995
2 22219  71.0606 197.1371 0016251 112.7079 247.5763 14.13737389560178
SL-16 R/B               
1 22220U 92076B   23044.92130750  .00000369  00000+0  20885-3 0  9995
2 22220  71.0009  26.5121 0012953 351.5595  29.7905 14.16532783563249
COSMOS 2221             
1 22236U 92080A   23045.49809881  .00003155  00000+0  33109-3 0  9997
2 22236  82.5052 264.6804 0015935 339.0536  21.0027 14.89146736613844
SL-16 R/B               
1 22285U 92093B   23045.13188383  .00000030  00000+0  40027-4 0  9990
2 22285  71.0215 193.9310 0006119 235.3298 124.7249 14.15127537554753
COSMOS 2228             
1 22286U 92094A   23045.29643559  .00004694  00000+0  48905-3 0  9992
2 22286  82.5183 222.2461 0021890  90.8207 269.5520 14.89437998609011
SL-16 R/B               
1 22566U 93016B   23045.28706631  .00000008  00000+0  28965-4 0  9998
2 22566  71.0079  45.7161 0012357 235.4134 124.5823 14.15039284543803
COSMOS 2242             
1 22626U 93024A   23045.31065953  .00003774  00000+0  39503-3 0  9995
2 22626  82.5189 250.7889 0019959  91.2520 269.0984 14.89238079613395
SL-16 R/B               
1 22803U 93059B   23045.42583080  .00000438  00000+0  24162-3 0  9997
2 22803  70.9889 210.8213 0015265 119.5954 240.6693 14.16904631520976
ARIANE 40 R/B           
1 22830U 93061H   23045.41453408  .00000626  00000+0  25138-3 0  9992
2 22830  98.6328 112.3223 0010594 353.7574   6.3475 14.31675768533880
COSMOS 2278             
1 23087U 94023A   23045.56954402 -.00000017  00000+0  15739-4 0  9994
2 23087  71.0559 355.6339 0011456 291.1828  68.8070 14.13919989486596
SL-16 R/B               
1 23088U 94023B   23045.34616598  .00000439  00000+0  25242-3 0  9998
2 23088  70.9985 261.1103 0004556 223.0467 137.0300 14.14740467487763
SL-16 R/B               
1 23343U 94074B   23045.58099887  .00001200  00000+0  17631-3 0  9990
2 23343  97.8596  97.8474 0005514 250.4175 279.2291 14.77259854521900
SL-16 R/B               
1 23405U 94077B   23045.61991676  .00000167  00000+0  11025-3 0  9995
2 23405  70.9831 186.2672 0001146 358.6333   1.4786 14.15291069457885
ERS-2                   
1 23560U 95021A   23045.57170812  .00043085  00000+0  13681-2 0  9998
2 23560  98.5101 350.1385 0006155  89.2680 270.9264 15.32514343490304
ARIANE 40+ R/B          
1 23561U 95021B   23045.43475870  .00000833  00000+0  28845-3 0  9999
2 23561  98.5911 108.3037 0006064 241.5878 129.2901 14.38306888458274
SL-16 R/B               
1 23705U 95058B   23045.35819279  .00000461  00000+0  26164-3 0  9994
2 23705  71.0240   9.6954 0011674  15.4986 344.6491 14.15207380409474
SL-16 R/B               
1 24298U 96051B   23045.23476808  .00000223  00000+0  14680-3 0  9996
2 24298  70.8285  20.6497 0015425 337.8679  22.1773 14.12484621363574
ORBVIEW 2 (SEASTAR)     
1 24883U 97037A   23045.58806867  .00000966  00000+0  36284-3 0  9999
2 24883  98.7050 175.1580 0003238 112.1086 248.0442 14.33913332348009
SL-16 R/B               
1 25400U 98043G   23045.57806803  .00000243  00000+0  12120-3 0  9993
2 25400  98.6965 344.3122 0010479  30.2770 329.9013 14.25567401279511
SL-16 R/B               
1 25407U 98045B   23045.20369619 -.00000060  00000+0 -63434-5 0  9996
2 25407  71.0131  15.2377 0009886 286.7388  73.2650 14.15893487268628
ISS (ZARYA)             
1 25544U 98067A   23045.69151348  .00024581  00000+0  43647-3 0  9997
2 25544  51.6410 215.2713 0009138 349.1629 116.3348 15.50018653382794
CZ-4B R/B               
1 25732U 99025C   23045.36116346  .00000231  00000+0  13454-3 0  9993
2 25732  98.8229  90.5660 0036589 316.9991  53.2170 14.17781529229538
OKEAN-O                 
1 25860U 99039A   23045.56845672  .00001538  00000+0  22440-3 0  9999
2 25860  98.1082  92.1189 0001364  67.4019 292.7335 14.77230494268998
SL-16 R/B               
1 25861U 99039B   23045.08018359  .00001471  00000+0  20577-3 0  9996
2 25861  98.1555  80.7853 0014181 276.2705  83.6890 14.79095529271210
DELTA 2 R/B             
1 25876U 99041E   23045.47338677  .00005268  00000+0  92232-3 0  9991
2 25876  51.7667  70.8746 0526934 300.7086  54.2934 14.05734388205251
HELIOS 1B               
1 25977U 99064A   23045.57347233  .00001768  00000+0  22408-3 0  9996
2 25977  98.3059 254.4216 0002403  87.8000 272.3487 14.83116765519169
TERRA                   
1 25994U 99068A   23045.51547522  .00001312  00000+0  28881-3 0  9992
2 25994  98.1095 116.8720 0002836  94.4357 321.0425 14.59035244231773
SL-16 R/B               
1 26070U 00006B   23045.42424926  .00000391  00000+0  22426-3 0  9999
2 26070  71.0029 290.7037 0014410  84.9880 275.2887 14.15523722190158
TITAN 4B R/B            
1 26474U 00047B   23045.59976645  .00004283  00000+0  36139-3 0  9990
2 26474  67.9944 277.5895 0056561 212.5091 147.2565 14.97893508224697
